NORAD_CAT_ID,OBJECT_NAME,OBJECT_TYPE,EPOCH,MEAN_MOTION,ECCENTRICITY,INCLINATION,RA_OF_ASC_NODE,ARG_OF_PERICENTER,MEAN_ANOMALY,BSTAR,MEAN_MOTION_DOT,MEAN_MOTION_DDOT,TLE_LINE0,TLE_LINE1,TLE_LINE2,SEMIMAJOR_AXIS,PERIOD,APOGEE,PERIGEE,DECAYED
53915.0,STARLINK-5017,PAYLOAD,2022-11-03 14:00:01,15.7324709,0.000249,53.2164,56.9263,30.2675,37.5233,-4.4712e-05,-6.906e-05,0.0,0 STARLINK-5017,1 53915U 22119AF  22307.58334491 -.00006906  00000-0 -44712-4 0  9994,2 53915  53.2164  56.9263 0002490  30.2675  37.5233 15.73247090  1300,6727.761,91.53,351.301,347.951,0.0
53915.0,STARLINK-5017,PAYLOAD,2022-11-03 22:00:00,15.73274128,0.0002411,53.2161,55.2762,24.4086,132.36,-0.00056273,-0.00079121,0.0,0 STARLINK-5017,1 53915U 22119AF  22307.91667824 -.00079121  00000-0 -56273-3 0  9993,2 53915  53.2161  55.2762 0002411  24.4086 132.3600 15.73274128  6722,6727.684,91.529,351.171,347.927,0.0
53915.0,STARLINK-5017,PAYLOAD,2022-11-04 14:00:01,15.73296759,0.0002222,53.2165,51.9669,23.7184,310.9593,-0.0027222,-0.0036803,0.0,0 STARLINK-5017,1 53915U 22119AF  22308.58334491 -.00368030  00000-0 -27222-2 0  9999,2 53915  53.2165  51.9669 0002222  23.7184 310.9593 15.73296759  1304,6727.619000000002,91.528,350.97900000000016,347.98900000000015,0.0
53915.0,STARLINK-5017,PAYLOAD,2022-11-04 22:00:01,15.73271024,0.0002429,53.2166,50.3274,15.6294,48.0654,-0.00096194,-0.00133927,0.0,0 STARLINK-5017,1 53915U 22119AF  22308.91668981 -.00133927  00000-0 -96194-3 0  9990,2 53915  53.2166  50.3274 0002429  15.6294  48.0654 15.73271024  6884,6727.693,91.529,351.19199999999995,347.9240000000001,0.0
53915.0,STARLINK-5017,PAYLOAD,2022-11-05 12:00:00,15.73099633,0.0002586,53.2171,47.441,18.8895,110.338,0.00033446,0.00046381,0.0,0 STARLINK-5017,1 53915U 22119AF  22309.50001157  .00046381  00000-0  33446-3 0  9998,2 53915  53.2171  47.4410 0002586  18.8895 110.3380 15.73099633  6978,6728.181,91.539,351.786,348.306,0.0
53915.0,STARLINK-5017,PAYLOAD,2022-11-05 14:00:01,15.7309654,0.0002697,53.2172,47.0291,19.2659,222.2327,0.00053745,0.00075158,0.0,0 STARLINK-5017,1 53915U 22119AF  22309.58335648  .00075158  00000-0  53745-3 0  9999,2 53915  53.2172  47.0291 0002697  19.2659 222.2327 15.73096540  1308,6728.19,91.539,351.87,348.241,0.0
53915.0,STARLINK-5017,PAYLOAD,2022-11-05 22:00:01,15.73177055,0.0002674,53.217,45.3791,17.6086,312.7206,0.00026649,0.00036911,0.0,0 STARLINK-5017,1 53915U 22119AF  22309.91668981  .00036911  00000-0  26649-3 0  9992,2 53915  53.2170  45.3791 0002674  17.6086 312.7206 15.73177055  1305,6727.9609999999975,91.535,351.625,348.027,0.0
53915.0,STARLINK-5017,PAYLOAD,2022-11-06 06:00:00,15.73199212,0.0002469,53.2172,43.7286,18.4067,40.7702,0.00016446,0.00022523,0.0,0 STARLINK-5017,1 53915U 22119AF  22310.25001157  .00022523  00000-0  16446-3 0  9995,2 53915  53.2172  43.7286 0002469  18.4067  40.7702 15.73199212  7098,6727.897,91.533,351.4240000000001,348.101,0.0
53915.0,STARLINK-5017,PAYLOAD,2022-11-06 14:00:01,15.73194394,0.0002743,53.2172,42.0813,14.7474,133.3542,0.00039603,0.0005532,0.0,0 STARLINK-5017,1 53915U 22119AF  22310.58334491  .00055320  00000-0  39603-3 0  9992,2 53915  53.2172  42.0813 0002743  14.7474 133.3542 15.73194394  1307,6727.911,91.534,351.622,347.931,0.0
53915.0,STARLINK-5017,PAYLOAD,2022-11-07 06:00:00,15.73194536,0.0002653,53.2178,38.7802,15.0766,310.9318,-0.00015207,-0.00021907,0.0,0 STARLINK-5017,1 53915U 22119AF  22311.25001157 -.00021907  00000-0 -15207-3 0  9997,2 53915  53.2178  38.7802 0002653  15.0766 310.9318 15.73194536  7242,6727.911,91.533,351.561,347.991,0.0
53915.0,STARLINK-5017,PAYLOAD,2022-11-07 22:00:00,15.73249158,0.0002918,53.2176,35.4825,11.9187,131.9012,-0.00038668,-0.00054666,0.0,0 STARLINK-5017,1 53915U 22119AF  22311.91667824 -.00054666  00000-0 -38668-3 0  9993,2 53915  53.2176  35.4825 0002918  11.9187 131.9012 15.73249158  7350,6727.755,91.53,351.583,347.657,0.0
53915.0,STARLINK-5017,PAYLOAD,2022-11-08 06:00:00,15.73244362,0.0002795,53.2174,33.8323,12.2289,220.6244,0.00073896,0.00104599,0.0,0 STARLINK-5017,1 53915U 22119AF  22312.25001157  .00104599  00000-0  73896-3 0  9993,2 53915  53.2174  33.8323 0002795  12.2289 220.6244 15.73244362  7404,6727.769,91.531,351.514,347.75300000000016,0.0
53915.0,STARLINK-5017,PAYLOAD,2022-11-08 12:00:00,15.73312457,0.0003094,53.2167,32.5969,12.7242,196.8849,-0.00028686,-0.00040892,0.0,0 STARLINK-5017,1 53915U 22119AF  22312.50001157 -.00040892  00000-0 -28686-3 0  9995,2 53915  53.2167  32.5969 0003094  12.7242 196.8849 15.73312457  7445,6727.575,91.527,351.521,347.358,0.0
53915.0,STARLINK-5017,PAYLOAD,2022-11-08 14:00:01,15.73282473,0.000315,53.2167,32.1848,13.6941,308.1849,0.00016296,0.00022394,0.0,0 STARLINK-5017,1 53915U 22119AF  22312.58334491  .00022394  00000-0  16296-3 0  9992,2 53915  53.2167  32.1848 0003150  13.6941 308.1849 15.73282473  1307,6727.66,91.528,351.644,347.406,0.0
53915.0,STARLINK-5017,PAYLOAD,2022-11-08 22:00:00,15.73366351,0.0003101,53.2162,30.5338,13.3385,37.5668,-0.00078333,-0.00109947,0.0,0 STARLINK-5017,1 53915U 22119AF  22312.91667824 -.00109947  00000-0 -78333-3 0  9990,2 53915  53.2162  30.5338 0003101  13.3385  37.5668 15.73366351  7512,6727.420999999999,91.524,351.372,347.2,0.0
53915.0,STARLINK-5017,PAYLOAD,2022-11-09 14:00:01,15.73091526,0.000339,53.2161,27.2358,14.4051,214.556,0.00023769,0.0003272,0.0,0 STARLINK-5017,1 53915U 22119AF  22313.58334491  .00032720  00000-0  23769-3 0  9990,2 53915  53.2161  27.2358 0003390  14.4051 214.5560 15.73091526  7616,6728.204000000002,91.539,352.35,347.789,0.0
53915.0,STARLINK-5017,PAYLOAD,2022-11-09 22:00:01,15.73136096,0.0003198,53.2157,25.585,11.6354,306.1908,-0.00053273,-0.00074549,0.0,0 STARLINK-5017,1 53915U 22119AF  22313.91668981 -.00074549  00000-0 -53273-3 0  9991,2 53915  53.2157  25.5850 0003198  11.6354 306.1908 15.73136096  1306,6728.0769999999975,91.537,352.094,347.791,0.0
53915.0,STARLINK-5017,PAYLOAD,2022-11-10 06:00:00,15.73099258,0.0003139,53.2157,23.9355,11.718,34.8659,0.0004143,0.00057683,0.0,0 STARLINK-5017,1 53915U 22119AF  22314.25001157  .00057683  00000-0  41430-3 0  9995,2 53915  53.2157  23.9355 0003139  11.7180  34.8659 15.73099258  7729,6728.182,91.539,352.159,347.935,0.0
53915.0,STARLINK-5017,PAYLOAD,2022-11-10 14:00:01,15.73110339,0.0003445,53.2155,22.2882,10.737,124.6785,0.00068487,0.00096254,0.0,0 STARLINK-5017,1 53915U 22119AF  22314.58334491  .00096254  00000-0  68487-3 0  9999,2 53915  53.2155  22.2882 0003445  10.7370 124.6785 15.73110339  1304,6728.151,91.538,352.334,347.6980000000001,0.0
53915.0,STARLINK-5017,PAYLOAD,2022-11-10 22:00:00,15.73205271,0.0003311,53.2155,20.6371,9.7911,214.4802,-0.00058441,-0.00081894,0.0,0 STARLINK-5017,1 53915U 22119AF  22314.91667824 -.00081894  00000-0 -58441-3 0  9990,2 53915  53.2155  20.6371 0003311   9.7911 214.4802 15.73205271  7821,6727.88,91.533,351.973,347.51800000000014,0.0
53915.0,STARLINK-5017,PAYLOAD,2022-11-11 06:00:00,15.73155973,0.0003288,53.2158,18.9873,9.7592,303.4082,0.00032027,0.00044489,0.0,0 STARLINK-5017,1 53915U 22119AF  22315.25001157  .00044489  00000-0  32027-3 0  9998,2 53915  53.2158  18.9873 0003288   9.7592 303.4082 15.73155973  7876,6728.021,91.536,352.098,347.6740000000001,0.0
53915.0,STARLINK-5017,PAYLOAD,2022-11-11 14:00:01,15.73169304,0.0003623,53.2157,17.3397,10.278,31.7971,0.00074548,0.00105208,0.0,0 STARLINK-5017,1 53915U 22119AF  22315.58334491  .00105208  00000-0  74548-3 0  9995,2 53915  53.2157  17.3397 0003623  10.2780  31.7971 15.73169304  1301,6727.983,91.535,352.285,347.41,0.0
53915.0,STARLINK-5017,PAYLOAD,2022-11-11 22:00:00,15.73265747,0.0003478,53.2154,15.6884,9.0063,122.005,-0.00024338,-0.00034748,0.0,0 STARLINK-5017,1 53915U 22119AF  22315.91667824 -.00034748  00000-0 -24338-3 0  9995,2 53915  53.2154  15.6884 0003478   9.0063 122.0050 15.73265747  7988,6727.708000000001,91.529,351.913,347.233,0.0
53915.0,STARLINK-5017,PAYLOAD,2022-11-12 14:00:01,15.73290816,0.0003697,53.215,12.3909,6.1419,302.8577,-0.00027237,-0.00038838,0.0,0 STARLINK-5017,1 53915U 22119AF  22316.58334491 -.00038838  00000-0 -27237-3 0  9995,2 53915  53.2150  12.3909 0003697   6.1419 302.8577 15.73290816  1309,6727.636,91.528,351.98800000000006,347.014,0.0
53915.0,STARLINK-5017,PAYLOAD,2022-11-12 22:00:00,15.73250087,0.0003513,53.2151,10.7391,4.3063,33.7244,-0.00062157,-0.00087179,0.0,0 STARLINK-5017,1 53915U 22119AF  22316.91667824 -.00087179  00000-0 -62157-3 0  9993,2 53915  53.2151  10.7391 0003513   4.3063  33.7244 15.73250087  1306,6727.752,91.53,351.981,347.254,0.0
53915.0,STARLINK-5017,PAYLOAD,2022-11-13 04:00:01,15.73208268,0.0003549,53.2153,9.5014,8.825,5.9862,-0.00067025,-0.0009372,0.0,0 STARLINK-5017,1 53915U 22119AF  22317.16668981 -.00093720  00000-0 -67025-3 0  9994,2 53915  53.2153   9.5014 0003549   8.8250   5.9862 15.73208268  8175,6727.871999999999,91.533,352.124,347.349,0.0
53915.0,STARLINK-5017,PAYLOAD,2022-11-13 14:00:01,15.73106227,0.000397,53.2153,7.4419,12.4252,203.4366,0.00079908,0.0011262,0.0,0 STARLINK-5017,1 53915U 22119AF  22317.58334491  .00112620  00000-0  79908-3 0  9998,2 53915  53.2153   7.4419 0003970  12.4252 203.4366 15.73106227  1306,6728.163000000001,91.539,352.699,347.356,0.0
53915.0,STARLINK-5017,PAYLOAD,2022-11-13 22:00:00,15.73191633,0.0003752,53.2152,5.7905,11.8501,292.8748,5.8891e-05,7.648e-05,0.0,0 STARLINK-5017,1 53915U 22119AF  22317.91667824  .00007648  00000-0  58891-4 0  9996,2 53915  53.2152   5.7905 0003752  11.8501 292.8748 15.73191633  1305,6727.919,91.534,352.30800000000005,347.26,0.0
53915.0,STARLINK-5017,PAYLOAD,2022-11-14 14:00:01,15.73340333,0.0003957,53.2147,2.4932,1.8702,120.743,-0.00091632,-0.00128122,0.0,0 STARLINK-5017,1 53915U 22119AF  22318.58334491 -.00128122  00000-0 -91632-3 0  9993,2 53915  53.2147   2.4932 0003957   1.8702 120.7430 15.73340333  8400,6727.495,91.525,352.022,346.6980000000001,0.0
